[{"OBJECT_NAME":"HAWK-3A","OBJECT_ID":"2021-059CG","EPOCH":"2026-03-09T11:39:03.628224","MEAN_MOTION":15.61551971,"ECCENTRICITY":0.00052261,"INCLINATION":97.6805,"RA_OF_ASC_NODE":259.1386,"ARG_OF_PERICENTER":339.6521,"MEAN_ANOMALY":20.4527,"EPHEMERIS_TYPE":0,"CLASSIFICATION_TYPE":"U","NORAD_CAT_ID":48957,"ELEMENT_SET_NO":999,"REV_AT_EPOCH":26225,"BSTAR":0.00045883562,"MEAN_MOTION_DOT":0.00039356,"MEAN_MOTION_DDOT":0},{"OBJECT_NAME":"HRC MONOBLOCK CAMERA","OBJECT_ID":"1998-067XR","EPOCH":"2026-03-09T09:07:55.754688","MEAN_MOTION":15.62163367,"ECCENTRICITY":0.00036673,"INCLINATION":51.6279,"RA_OF_ASC_NODE":67.0928,"ARG_OF_PERICENTER":90.6396,"MEAN_ANOMALY":269.5018,"EPHEMERIS_TYPE":0,"CLASSIFICATION_TYPE":"U","NORAD_CAT_ID":66052,"ELEMENT_SET_NO":999,"REV_AT_EPOCH":2234,"BSTAR":0.00060520784,"MEAN_MOTION_DOT":0.0005407,"MEAN_MOTION_DDOT":0}]
